IRIDIUM 116             
1 43072U 17083C   25069.81248992  .00000321  00000+0  10755-3 0  9996
2 43072  86.4025 155.7144 0001869  94.6224 265.5185 14.34217772377750
IRIDIUM 130             
1 43073U 17083D   25069.78077723  .00000132  00000+0  39972-4 0  9998
2 43073  86.4036 155.9577 0002049  90.1239 270.0192 14.34218402377696
IRIDIUM 151             
1 43074U 17083E   25069.75540671  .00000485  00000+0  16626-3 0  9994
2 43074  86.4029 155.7855 0001994 100.3970 259.7451 14.34219520377717
IRIDIUM 134             
1 43075U 17083F   25069.93299988  .00000138  00000+0  42237-4 0  9990
2 43075  86.4028 155.7135 0002125  91.9656 268.1783 14.34217474377708
IRIDIUM 137             
1 43076U 17083G   25069.80614500  .00000229  00000+0  74749-4 0  9992
2 43076  86.4030 155.8492 0001628 104.6973 255.4403 14.34217144377757
IRIDIUM 141             
1 43077U 17083H   25069.73006334  .00000727  00000+0  25258-3 0  9998
2 43077  86.4026 155.7384 0002480  98.3197 261.8281 14.34217422377749
IRIDIUM 153             
1 43078U 17083J   25069.75198536 -.00000029  00000+0 -17282-4 0  9993
2 43078  86.3961 124.2372 0002700  98.3004 261.8498 14.34217692378859
IRIDIUM 131             
1 43079U 17083K   25069.78711767  .00000054  00000+0  12231-4 0  9999
2 43079  86.4030 155.8691 0002221 103.8124 256.3319 14.34215846377685
